CRE (WAAS/PRN 138)      
1 28868U 05036A   23102.58602965 -.00000077  00000+0  00000+0 0  9998
2 28868   1.3198  90.6251 0002570 319.3142 254.2504  1.00271543 34806
IOR-W (EGNOS/PRN 126)   
1 28899U 05044A   23102.43660433  .00000009  00000+0  00000+0 0  9993
2 28899   3.7519  39.8404 0002873 354.5229  27.0820  1.00270840 63876
QZS-1 (QZSS/PRN 183)    
1 37158U 10045A   23101.93491135 -.00000104  00000+0  00000+0 0  9990
2 37158  42.6551 129.2800 0757594 270.1756 274.2346  1.00293781 46083
GSAT-8 (GAGAN/PRN 127)  
1 37605U 11022A   23102.48729851  .00000082  00000+0  00000+0 0  9997
2 37605   0.0624  84.3005 0004968 221.0822 125.5323  1.00270579 41567
LUCH 5A (SDCM/PRN 140)  
1 37951U 11074B   23101.61091181 -.00000042  00000+0  00000+0 0  9997
2 37951   5.7727  92.1779 0003618 305.8275 188.6379  1.00276014 41534
SES-5 (EGNOS/PRN 136)   
1 38652U 12036A   23102.12519208  .00000032  00000+0  00000+0 0  9995
2 38652   0.0527 295.2207 0002085  88.5544 226.3446  1.00271710 32838
GSAT-10 (GAGAN/PRN 128) 
1 38779U 12051B   23102.53174321 -.00000168  00000+0  00000+0 0  9991
2 38779   0.0450  96.0186 0001458 210.3150 168.5639  1.00270468 38473
LUCH 5B (SDCM/PRN 125)  
1 38977U 12061A   23102.12100816 -.00000134  00000+0  00000+0 0  9998
2 38977   7.9418  60.3028 0002138  19.5100 147.4900  1.00271851 38522
ASTRA 5B (EGNOS/PRN 123)
1 39617U 14011B   23102.50952031  .00000151  00000+0  00000+0 0  9991
2 39617   0.0604 311.6344 0003252  78.1583  25.5936  1.00272353 33014
LUCH 5V (SDCM/PRN 141)  
1 39727U 14023A   23102.60099053 -.00000272  00000+0  00000+0 0  9998
2 39727   2.2225  77.4442 0002259 333.4818 100.7440  1.00271132 32715
GSAT-15 (GAGAN/PRN 139) 
1 41028U 15065A   23102.59756161 -.00000262  00000+0  00000+0 0  9999
2 41028   0.0117 203.4060 0002578 211.8691  93.8732  1.00272795 27162
E 117 W B (WAAS/PRN 131)
1 41589U 16038B   23102.57427256 -.00000015  00000+0  00000+0 0  9996
2 41589   0.0123  78.0627 0000319 220.2575 351.9271  1.00271141 25058
SES-15 (WAAS/PRN 133)   
1 42709U 17026A   23102.55923152  .00000056  00000+0  00000+0 0  9997
2 42709   0.0160  16.8473 0000539  36.8213 218.9952  1.00269735 22531
QZS-2 (QZSS/PRN 184)    
1 42738U 17028A   23101.74979892 -.00000167  00000+0  00000+0 0  9997
2 42738  41.2804 259.9324 0741860 270.5396  78.3354  1.00255335 21486
QZS-3 (QZSS/PRN 189)    
1 42917U 17048A   23102.52974912 -.00000352  00000+0  00000+0 0  9999
2 42917   0.0707 145.1818 0001877 253.1333 119.8581  1.00267352 20618
QZS-4 (QZSS/PRN 185)    
1 42965U 17062A   23102.58096535 -.00000308  00000+0  00000+0 0  9991
2 42965  40.6843 358.2823 0746930 270.3725 280.6374  1.00271964 20168
BEIDOU-3 G1 (PRN 130)   
1 43683U 18085A   23102.56230003 -.00000280  00000+0  00000+0 0  9992
2 43683   1.2163 136.0302 0004305 304.2512 102.7368  1.00274022 16410
BEIDOU-3 G2 (PRN 144)   
1 45344U 20017A   23102.14009727 -.00000142  00000+0  00000+0 0  9994
2 45344   1.9965   8.3032 0002222  63.7593 258.4762  1.00272586 11613
BEIDOU-3 G3 (PRN 143)   
1 45807U 20040A   23102.54980089 -.00000358  00000+0  00000+0 0  9996
2 45807   0.8178 321.1171 0005711 333.5383 214.3290  1.00269543 10426
GALAXY 30 (WAAS/PRN 135)
1 46114U 20056C   23102.09930413  .00000036  00000+0  00000+0 0  9993
2 46114   0.0156 181.5501 0002149 218.6365  70.6157  1.00270977  9758
